{
  "type": "FeatureCollection",
  "features": [
    {
      "type": "Feature",
      "properties": {
        "norad_id": 31978,
        "name": "FENGYUN 1C DEB",
        "group": "fengyun-1c-debris",
        "lat": -45.71941618220666,
        "lon": 155.6436184975716,
        "alt_km": 993.4506830778191,
        "timestamp": "2025-12-18T17:50:15.241765+00:00",
        "meta_object_name": "FENGYUN 1C DEB",
        "meta_object_id": "1999-025CPF",
        "meta_epoch": "2025-12-17T05:03:54.528192",
        "meta_mean_motion": 13.63121561,
        "meta_eccentricity": 0.02630843,
        "meta_inclination": 98.3794,
        "meta_ra_of_asc_node": 145.6299,
        "meta_arg_of_pericenter": 38.1367,
        "meta_mean_anomaly": 323.8078,
        "meta_ephemeris_type": 0,
        "meta_classification_type": "U",
        "meta_norad_cat_id": 31978,
        "meta_element_set_no": 999,
        "meta_rev_at_epoch": 91651,
        "meta_bstar": 0.0010478209,
        "meta_mean_motion_dot": 1.004e-05,
        "meta_mean_motion_ddot": 0,
        "tle_line1": "1 31978U 99025CPF 25351.21104778  .00001004  00000+0  10478-2 0  9995",
        "tle_line2": "2 31978  98.3794 145.6299 0263084  38.1367 323.8078 13.63121561916519"
      },
      "geometry": {
        "type": "Point",
        "coordinates": [
          155.6436184975716,
          -45.71941618220666
        ]
      }
    },
    {
      "type": "Feature",
      "properties": {
        "norad_id": 31979,
        "name": "FENGYUN 1C DEB",
        "group": "fengyun-1c-debris",
        "lat": 9.170818916096692,
        "lon": 83.66306378675216,
        "alt_km": 1046.3435657420614,
        "timestamp": "2025-12-18T17:50:15.241775+00:00",
        "meta_object_name": "FENGYUN 1C DEB",
        "meta_object_id": "1999-025CPG",
        "meta_epoch": "2025-12-18T02:00:34.037856",
        "meta_mean_motion": 13.6932555,
        "meta_eccentricity": 0.02673615,
        "meta_inclination": 99.377,
        "meta_ra_of_asc_node": 84.5492,
        "meta_arg_of_pericenter": 267.099,
        "meta_mean_anomaly": 89.9533,
        "meta_ephemeris_type": 0,
        "meta_classification_type": "U",
        "meta_norad_cat_id": 31979,
        "meta_element_set_no": 999,
        "meta_rev_at_epoch": 57985,
        "meta_bstar": 0.0027907291,
        "meta_mean_motion_dot": 3.07e-05,
        "meta_mean_motion_ddot": 0,
        "tle_line1": "1 31979U 99025CPG 25352.08372729  .00003070  00000+0  27907-2 0  9995",
        "tle_line2": "2 31979  99.3770  84.5492 0267361 267.0990  89.9533 13.69325550579856"
      },
      "geometry": {
        "type": "Point",
        "coordinates": [
          83.66306378675216,
          9.170818916096692
        ]
      }
    },
    {
      "type": "Feature",
      "properties": {
        "norad_id": 31980,
        "name": "FENGYUN 1C DEB",
        "group": "fengyun-1c-debris",
        "lat": -38.33222073280068,
        "lon": 82.5696935213389,
        "alt_km": 1370.5195744059201,
        "timestamp": "2025-12-18T17:50:15.241785+00:00",
        "meta_object_name": "FENGYUN 1C DEB",
        "meta_object_id": "1999-025CPH",
        "meta_epoch": "2025-12-16T11:57:41.696928",
        "meta_mean_motion": 13.32153551,
        "meta_eccentricity": 0.04281038,
        "meta_inclination": 97.6145,
        "meta_ra_of_asc_node": 74.8269,
        "meta_arg_of_pericenter": 103.3204,
        "meta_mean_anomaly": 261.6022,
        "meta_ephemeris_type": 0,
        "meta_classification_type": "U",
        "meta_norad_cat_id": 31980,
        "meta_element_set_no": 999,
        "meta_rev_at_epoch": 89720,
        "meta_bstar": 0.00040322723,
        "meta_mean_motion_dot": 3.01e-06,
        "meta_mean_motion_ddot": 0,
        "tle_line1": "1 31980U 99025CPH 25350.49839927  .00000301  00000+0  40323-3 0  9990",
        "tle_line2": "2 31980  97.6145  74.8269 0428103 103.3204 261.6022 13.32153551897206"
      },
      "geometry": {
        "type": "Point",
        "coordinates": [
          82.5696935213389,
          -38.33222073280068
        ]
      }
    },
    {
      "type": "Feature",
      "properties": {
        "norad_id": 31984,
        "name": "FENGYUN 1C DEB",
        "group": "fengyun-1c-debris",
        "lat": 61.73136372740885,
        "lon": -166.82770062664906,
        "alt_km": 811.1356296493377,
        "timestamp": "2025-12-18T17:50:15.241795+00:00",
        "meta_object_name": "FENGYUN 1C DEB",
        "meta_object_id": "1999-025CPM",
        "meta_epoch": "2025-12-18T07:09:32.915232",
        "meta_mean_motion": 14.22968839,
        "meta_eccentricity": 0.00628019,
        "meta_inclination": 98.5578,
        "meta_ra_of_asc_node": 356.4784,
        "meta_arg_of_pericenter": 210.9858,
        "meta_mean_anomaly": 148.7609,
        "meta_ephemeris_type": 0,
        "meta_classification_type": "U",
        "meta_norad_cat_id": 31984,
        "meta_element_set_no": 999,
        "meta_rev_at_epoch": 94452,
        "meta_bstar": 0.00030022048,
        "meta_mean_motion_dot": 6.47e-06,
        "meta_mean_motion_ddot": 0,
        "tle_line1": "1 31984U 99025CPM 25352.29829763  .00000647  00000+0  30022-3 0  9999",
        "tle_line2": "2 31984  98.5578 356.4784 0062801 210.9858 148.7609 14.22968839944527"
      },
      "geometry": {
        "type": "Point",
        "coordinates": [
          -166.82770062664906,
          61.73136372740885
        ]
      }
    },
    {
      "type": "Feature",
      "properties": {
        "norad_id": 31985,
        "name": "FENGYUN 1C DEB",
        "group": "fengyun-1c-debris",
        "lat": -71.33739191845497,
        "lon": 48.23411267591295,
        "alt_km": 723.4650845296346,
        "timestamp": "2025-12-18T17:50:15.241805+00:00",
        "meta_object_name": "FENGYUN 1C DEB",
        "meta_object_id": "1999-025CPN",
        "meta_epoch": "2025-12-13T23:34:50.116800",
        "meta_mean_motion": 14.22977716,
        "meta_eccentricity": 0.01504255,
        "meta_inclination": 98.2196,
        "meta_ra_of_asc_node": 249.1254,
        "meta_arg_of_pericenter": 243.0612,
        "meta_mean_anomaly": 115.5134,
        "meta_ephemeris_type": 0,
        "meta_classification_type": "U",
        "meta_norad_cat_id": 31985,
        "meta_element_set_no": 999,
        "meta_rev_at_epoch": 95628,
        "meta_bstar": 0.00043991826,
        "meta_mean_motion_dot": 1.071e-05,
        "meta_mean_motion_ddot": 0,
        "tle_line1": "1 31985U 99025CPN 25347.98252450  .00001071  00000+0  43992-3 0  9995",
        "tle_line2": "2 31985  98.2196 249.1254 0150425 243.0612 115.5134 14.22977716956281"
      },
      "geometry": {
        "type": "Point",
        "coordinates": [
          48.23411267591295,
          -71.33739191845497
        ]
      }
    },
    {
      "type": "Feature",
      "properties": {
        "norad_id": 31987,
        "name": "FENGYUN 1C DEB",
        "group": "fengyun-1c-debris",
        "lat": 29.57657087888649,
        "lon": 151.91190908322554,
        "alt_km": 704.4201839419438,
        "timestamp": "2025-12-18T17:50:15.241815+00:00",
        "meta_object_name": "FENGYUN 1C DEB",
        "meta_object_id": "1999-025CPQ",
        "meta_epoch": "2025-12-17T21:20:39.433056",
        "meta_mean_motion": 14.44944094,
        "meta_eccentricity": 0.00517476,
        "meta_inclination": 99.0388,
        "meta_ra_of_asc_node": 325.8207,
        "meta_arg_of_pericenter": 142.1869,
        "meta_mean_anomaly": 248.406,
        "meta_ephemeris_type": 0,
        "meta_classification_type": "U",
        "meta_norad_cat_id": 31987,
        "meta_element_set_no": 999,
        "meta_rev_at_epoch": 96444,
        "meta_bstar": 0.00073712534,
        "meta_mean_motion_dot": 2.562e-05,
        "meta_mean_motion_ddot": 0,
        "tle_line1": "1 31987U 99025CPQ 25351.88934529  .00002562  00000+0  73713-3 0  9995",
        "tle_line2": "2 31987  99.0388 325.8207 0051747 142.1869 248.4060 14.44944094964443"
      },
      "geometry": {
        "type": "Point",
        "coordinates": [
          151.91190908322554,
          29.57657087888649
        ]
      }
    },
    {
      "type": "Feature",
      "properties": {
        "norad_id": 31989,
        "name": "FENGYUN 1C DEB",
        "group": "fengyun-1c-debris",
        "lat": 57.9939063025091,
        "lon": 38.82153610687493,
        "alt_km": 970.9476123406293,
        "timestamp": "2025-12-18T17:50:15.241825+00:00",
        "meta_object_name": "FENGYUN 1C DEB",
        "meta_object_id": "1999-025CPS",
        "meta_epoch": "2025-12-15T16:11:35.170368",
        "meta_mean_motion": 13.93591985,
        "meta_eccentricity": 0.0115261,
        "meta_inclination": 99.2132,
        "meta_ra_of_asc_node": 50.8156,
        "meta_arg_of_pericenter": 291.0863,
        "meta_mean_anomaly": 221.027,
        "meta_ephemeris_type": 0,
        "meta_classification_type": "U",
        "meta_norad_cat_id": 31989,
        "meta_element_set_no": 999,
        "meta_rev_at_epoch": 93758,
        "meta_bstar": 0.00049954957,
        "meta_mean_motion_dot": 6.47e-06,
        "meta_mean_motion_ddot": 0,
        "tle_line1": "1 31989U 99025CPS 25349.67471262  .00000647  00000+0  49955-3 0  9994",
        "tle_line2": "2 31989  99.2132  50.8156 0115261 291.0863 221.0270 13.93591985937587"
      },
      "geometry": {
        "type": "Point",
        "coordinates": [
          38.82153610687493,
          57.9939063025091
        ]
      }
    }
  ]
}